[{"OBJECT_NAME":"STARLINK-35276","OBJECT_ID":"2025-232E","EPOCH":"2026-03-09T11:29:09.984192","MEAN_MOTION":15.30190511,"ECCENTRICITY":0.00013119,"INCLINATION":53.1595,"RA_OF_ASC_NODE":104.8659,"ARG_OF_PERICENTER":88.4252,"MEAN_ANOMALY":271.6899,"EPHEMERIS_TYPE":0,"CLASSIFICATION_TYPE":"U","NORAD_CAT_ID":66009,"ELEMENT_SET_NO":999,"REV_AT_EPOCH":2338,"BSTAR":0.0008112497,"MEAN_MOTION_DOT":0.00023737,"MEAN_MOTION_DDOT":0},{"OBJECT_NAME":"COSMOS 546","OBJECT_ID":"1973-005A","EPOCH":"2026-03-09T21:40:39.247392","MEAN_MOTION":15.29707303,"ECCENTRICITY":0.00147738,"INCLINATION":50.6327,"RA_OF_ASC_NODE":289.914,"ARG_OF_PERICENTER":261.1516,"MEAN_ANOMALY":98.7778,"EPHEMERIS_TYPE":0,"CLASSIFICATION_TYPE":"U","NORAD_CAT_ID":6350,"ELEMENT_SET_NO":999,"REV_AT_EPOCH":92802,"BSTAR":9.142057e-5,"MEAN_MOTION_DOT":2.316e-5,"MEAN_MOTION_DDOT":0}]
